[{"OBJECT_NAME":"STARLINK-32505","OBJECT_ID":"2025-037J","EPOCH":"2026-03-09T22:00:01.999584","MEAN_MOTION":14.98348642,"ECCENTRICITY":0.00031381,"INCLINATION":70.003,"RA_OF_ASC_NODE":354.0433,"ARG_OF_PERICENTER":266.347,"MEAN_ANOMALY":34.7136,"EPHEMERIS_TYPE":0,"CLASSIFICATION_TYPE":"U","NORAD_CAT_ID":63085,"ELEMENT_SET_NO":999,"REV_AT_EPOCH":576,"BSTAR":-0.0027350248,"MEAN_MOTION_DOT":-0.00032592,"MEAN_MOTION_DDOT":0},{"OBJECT_NAME":"CZ-4C DEB","OBJECT_ID":"2018-031C","EPOCH":"2026-03-09T22:35:49.335936","MEAN_MOTION":15.00077094,"ECCENTRICITY":0.00045193,"INCLINATION":97.7854,"RA_OF_ASC_NODE":153.1131,"ARG_OF_PERICENTER":226.9779,"MEAN_ANOMALY":133.1066,"EPHEMERIS_TYPE":0,"CLASSIFICATION_TYPE":"U","NORAD_CAT_ID":43261,"ELEMENT_SET_NO":999,"REV_AT_EPOCH":42952,"BSTAR":0.00069836513,"MEAN_MOTION_DOT":8.649e-5,"MEAN_MOTION_DDOT":0}]
